LEMUR-2-AMANDA-SVANTE   
1 48269U 21034B   26068.77637527  .00030872  00000+0  11134-2 0  9996
2 48269  97.5829 144.8625 0002703 205.4721 154.6385 15.28469003265849
STARLINK-34129          
1 64138U 25111R   26068.44603653  .00026847  00000+0  98116-3 0  9999
2 64138  43.0005  79.4557 0001467 268.7528  91.3156 15.27593456 45471
